{"type": "FeatureCollection", "features": [ {"type": "Feature", "properties": {"norad_id": 29769, "name": "FENGYUN 1C DEB", "group": "fengyun-1c-debris", "lat": 17.777142749472603, "lon": -139.27239440238748, "alt_km": 781.9508724807629, "timestamp": "2025-12-06T14:35:37.397234+00:00", "meta": {"OBJECT_NAME": "FENGYUN 1C DEB", "OBJECT_ID": "1999-025BK", "EPOCH": "2025-12-02T16:23:36.839328", "MEAN_MOTION": 14.1344001, "ECCENTRICITY": 0.00941574, "INCLINATION": 99.1074, "RA_OF_ASC_NODE": 33.7848, "ARG_OF_PERICENTER": 158.4055, "MEAN_ANOMALY": 202.1129, "EPHEMERIS_TYPE": 0, "CLASSIFICATION_TYPE": "U", "NORAD_CAT_ID": 29769, "ELEMENT_SET_NO": 999, "REV_AT_EPOCH": 96539, "BSTAR": 0.0018821587, "MEAN_MOTION_DOT": 3.647e-05, "MEAN_MOTION_DDOT": 0}, "tle": {"line1": "1 29769U 99025BK  25336.68306527  .00003647  00000+0  18822-2 0  9996", "line2": "2 29769  99.1074  33.7848 0094157 158.4055 202.1129 14.13440010965399"}}, "geometry": {"type": "Point", "coordinates": [-139.27239440238748, 17.777142749472603]}}, {"type": "Feature", "properties": {"norad_id": 29770, "name": "FENGYUN 1C DEB", "group": "fengyun-1c-debris", "lat": 16.99122881366043, "lon": -121.09226225261615, "alt_km": 852.017860132506, "timestamp": "2025-12-06T14:35:37.397244+00:00", "meta": {"OBJECT_NAME": "FENGYUN 1C DEB", "OBJECT_ID": "1999-025BL", "EPOCH": "2025-12-06T03:49:05.488320", "MEAN_MOTION": 14.20053095, "ECCENTRICITY": 0.00622677, "INCLINATION": 98.8469, "RA_OF_ASC_NODE": 55.7312, "ARG_OF_PERICENTER": 290.3112, "MEAN_ANOMALY": 98.9645, "EPHEMERIS_TYPE": 0, "CLASSIFICATION_TYPE": "U", "NORAD_CAT_ID": 29770, "ELEMENT_SET_NO": 999, "REV_AT_EPOCH": 96993, "BSTAR": 0.0025251905, "MEAN_MOTION_DOT": 5.44e-05, "MEAN_MOTION_DDOT": 0}, "tle": {"line1": "1 29770U 99025BL  25340.15909130  .00005440  00000+0  25252-2 0  9992", "line2": "2 29770  98.8469  55.7312 0062267 290.3112  98.9645 14.20053095969931"}}, "geometry": {"type": "Point", "coordinates": [-121.09226225261615, 16.99122881366043]}}, {"type": "Feature", "properties": {"norad_id": 29772, "name": "FENGYUN 1C DEB", "group": "fengyun-1c-debris", "lat": 79.53437652215149, "lon": 63.28826217561745, "alt_km": 961.0844961475677, "timestamp": "2025-12-06T14:35:37.397255+00:00", "meta": {"OBJECT_NAME": "FENGYUN 1C DEB", "OBJECT_ID": "1999-025BN", "EPOCH": "2025-12-02T01:20:42.454752", "MEAN_MOTION": 14.03146146, "ECCENTRICITY": 0.01386122, "INCLINATION": 98.3877, "RA_OF_ASC_NODE": 186.0811, "ARG_OF_PERICENTER": 320.4428, "MEAN_ANOMALY": 193.9524, "EPHEMERIS_TYPE": 0, "CLASSIFICATION_TYPE": "U", "NORAD_CAT_ID": 29772, "ELEMENT_SET_NO": 999, "REV_AT_EPOCH": 96105, "BSTAR": 0.0011778651, "MEAN_MOTION_DOT": 1.956e-05, "MEAN_MOTION_DDOT": 0}, "tle": {"line1": "1 29772U 99025BN  25336.05604693  .00001956  00000+0  11779-2 0  9991", "line2": "2 29772  98.3877 186.0811 0138612 320.4428 193.9524 14.03146146961054"}}, "geometry": {"type": "Point", "coordinates": [63.28826217561745, 79.53437652215149]}}, {"type": "Feature", "properties": {"norad_id": 29773, "name": "FENGYUN 1C DEB", "group": "fengyun-1c-debris", "lat": -34.264807817123135, "lon": 140.22620162111687, "alt_km": 774.1575549435893, "timestamp": "2025-12-06T14:35:37.397266+00:00", "meta": {"OBJECT_NAME": "FENGYUN 1C DEB", "OBJECT_ID": "1999-025BP", "EPOCH": "2025-12-05T22:38:53.359296", "MEAN_MOTION": 14.27550152, "ECCENTRICITY": 0.00463976, "INCLINATION": 98.9874, "RA_OF_ASC_NODE": 133.3539, "ARG_OF_PERICENTER": 310.6159, "MEAN_ANOMALY": 202.0379, "EPHEMERIS_TYPE": 0, "CLASSIFICATION_TYPE": "U", "NORAD_CAT_ID": 29773, "ELEMENT_SET_NO": 999, "REV_AT_EPOCH": 98100, "BSTAR": 0.00061587617, "MEAN_MOTION_DOT": 1.485e-05, "MEAN_MOTION_DDOT": 0}, "tle": {"line1": "1 29773U 99025BP  25339.94367314  .00001485  00000+0  61588-3 0  9990", "line2": "2 29773  98.9874 133.3539 0046397 310.6159 202.0379 14.27550152981009"}}, "geometry": {"type": "Point", "coordinates": [140.22620162111687, -34.264807817123135]}}, {"type": "Feature", "properties": {"norad_id": 29774, "name": "FENGYUN 1C DEB", "group": "fengyun-1c-debris", "lat": 37.156289892385495, "lon": -86.20334637160356, "alt_km": 821.3408720365296, "timestamp": "2025-12-06T14:35:37.397276+00:00", "meta": {"OBJECT_NAME": "FENGYUN 1C DEB", "OBJECT_ID": "1999-025BQ", "EPOCH": "2025-12-05T20:09:10.725408", "MEAN_MOTION": 14.22723929, "ECCENTRICITY": 0.00508483, "INCLINATION": 99.0751, "RA_OF_ASC_NODE": 279.9626, "ARG_OF_PERICENTER": 142.7731, "MEAN_ANOMALY": 282.3769, "EPHEMERIS_TYPE": 0, "CLASSIFICATION_TYPE": "U", "NORAD_CAT_ID": 29774, "ELEMENT_SET_NO": 999, "REV_AT_EPOCH": 97977, "BSTAR": 0.00030420647, "MEAN_MOTION_DOT": 6.44e-06, "MEAN_MOTION_DDOT": 0}, "tle": {"line1": "1 29774U 99025BQ  25339.83970747  .00000644  00000+0  30421-3 0  9997", "line2": "2 29774  99.0751 279.9626 0050848 142.7731 282.3769 14.22723929979770"}}, "geometry": {"type": "Point", "coordinates": [-86.20334637160356, 37.156289892385495]}}, {"type": "Feature", "properties": {"norad_id": 29776, "name": "FENGYUN 1C DEB", "group": "fengyun-1c-debris", "lat": -72.71272086476738, "lon": 157.79459400186474, "alt_km": 860.5642111542174, "timestamp": "2025-12-06T14:35:37.397286+00:00", "meta": {"OBJECT_NAME": "FENGYUN 1C DEB", "OBJECT_ID": "1999-025BS", "EPOCH": "2025-12-06T01:33:53.897760", "MEAN_MOTION": 14.0777003, "ECCENTRICITY": 0.00228014, "INCLINATION": 98.7717, "RA_OF_ASC_NODE": 7.0102, "ARG_OF_PERICENTER": 290.4646, "MEAN_ANOMALY": 95.0022, "EPHEMERIS_TYPE": 0, "CLASSIFICATION_TYPE": "U", "NORAD_CAT_ID": 29776, "ELEMENT_SET_NO": 999, "REV_AT_EPOCH": 96986, "BSTAR": 0.0002597759, "MEAN_MOTION_DOT": 3.98e-06, "MEAN_MOTION_DDOT": 0}, "tle": {"line1": "1 29776U 99025BS  25340.06520715  .00000398  00000+0  25978-3 0  9999", "line2": "2 29776  98.7717   7.0102 0022801 290.4646  95.0022 14.07770030969861"}}, "geometry": {"type": "Point", "coordinates": [157.79459400186474, -72.71272086476738]}}, {"type": "Feature", "properties": {"norad_id": 29777, "name": "FENGYUN 1C DEB", "group": "fengyun-1c-debris", "lat": -70.66669464836721, "lon": 65.25235391028349, "alt_km": 894.9980007342047, "timestamp": "2025-12-06T14:35:37.397296+00:00", "meta": {"OBJECT_NAME": "FENGYUN 1C DEB", "OBJECT_ID": "1999-025BT", "EPOCH": "2025-12-06T03:00:34.483968", "MEAN_MOTION": 13.92100671, "ECCENTRICITY": 0.00924683, "INCLINATION": 99.2844, "RA_OF_ASC_NODE": 36.9788, "ARG_OF_PERICENTER": 227.6787, "MEAN_ANOMALY": 160.8284, "EPHEMERIS_TYPE": 0, "CLASSIFICATION_TYPE": "U", "NORAD_CAT_ID": 29777, "ELEMENT_SET_NO": 999, "REV_AT_EPOCH": 95949, "BSTAR": 0.0001825295, "MEAN_MOTION_DOT": 1.96e-06, "MEAN_MOTION_DDOT": 0}, "tle": {"line1": "1 29777U 99025BT  25340.12539912  .00000196  00000+0  18253-3 0  9990", "line2": "2 29777  99.2844  36.9788 0092468 227.6787 160.8284 13.92100671959494"}}, "geometry": {"type": "Point", "coordinates": [65.25235391028349, -70.66669464836721]}}, {"type": "Feature", "properties": {"norad_id": 29779, "name": "FENGYUN 1C DEB", "group": "fengyun-1c-debris", "lat": 43.64419395083247, "lon": -179.59591692543006, "alt_km": 812.0533191058748, "timestamp": "2025-12-06T14:35:37.397307+00:00", "meta": {"OBJECT_NAME": "FENGYUN 1C DEB", "OBJECT_ID": "1999-025BV", "EPOCH": "2025-12-06T07:09:20.800224", "MEAN_MOTION": 14.13434128, "ECCENTRICITY": 0.00631826, "INCLINATION": 98.6773, "RA_OF_ASC_NODE": 351.7285, "ARG_OF_PERICENTER": 182.4986, "MEAN_ANOMALY": 177.5881, "EPHEMERIS_TYPE": 0, "CLASSIFICATION_TYPE": "U", "NORAD_CAT_ID": 29779, "ELEMENT_SET_NO": 999, "REV_AT_EPOCH": 97321, "BSTAR": 0.00040950692, "MEAN_MOTION_DOT": 7.42e-06, "MEAN_MOTION_DDOT": 0}, "tle": {"line1": "1 29779U 99025BV  25340.29815741  .00000742  00000+0  40951-3 0  9994", "line2": "2 29779  98.6773 351.7285 0063182 182.4986 177.5881 14.13434128973215"}}, "geometry": {"type": "Point", "coordinates": [-179.59591692543006, 43.64419395083247]}}, {"type": "Feature", "properties": {"norad_id": 29780, "name": "FENGYUN 1C DEB", "group": "fengyun-1c-debris", "lat": 79.50487941101629, "lon": 143.16202221482004, "alt_km": 796.554311628357, "timestamp": "2025-12-06T14:35:37.397317+00:00", "meta": {"OBJECT_NAME": "FENGYUN 1C DEB", "OBJECT_ID": "1999-025BW", "EPOCH": "2025-12-06T05:41:55.148640", "MEAN_MOTION": 14.20971053, "ECCENTRICITY": 0.0039994, "INCLINATION": 99.2778, "RA_OF_ASC_NODE": 260.8417, "ARG_OF_PERICENTER": 147.2282, "MEAN_ANOMALY": 213.1386, "EPHEMERIS_TYPE": 0, "CLASSIFICATION_TYPE": "U", "NORAD_CAT_ID": 29780, "ELEMENT_SET_NO": 999, "REV_AT_EPOCH": 96986, "BSTAR": 0.0029553991, "MEAN_MOTION_DOT": 6.412e-05, "MEAN_MOTION_DDOT": 0}, "tle": {"line1": "1 29780U 99025BW  25340.23744385  .00006412  00000+0  29554-2 0  9990", "line2": "2 29780  99.2778 260.8417 0039994 147.2282 213.1386 14.20971053969862"}}, "geometry": {"type": "Point", "coordinates": [143.16202221482004, 79.50487941101629]}}, {"type": "Feature", "properties": {"norad_id": 29781, "name": "FENGYUN 1C DEB", "group": "fengyun-1c-debris", "lat": 33.50255114546199, "lon": -30.952863727079603, "alt_km": 921.135029253509, "timestamp": "2025-12-06T14:35:37.397327+00:00", "meta": {"OBJECT_NAME": "FENGYUN 1C DEB", "OBJECT_ID": "1999-025BX", "EPOCH": "2025-12-06T05:56:31.768224", "MEAN_MOTION": 14.05207868, "ECCENTRICITY": 0.00716102, "INCLINATION": 98.8095, "RA_OF_ASC_NODE": 334.5889, "ARG_OF_PERICENTER": 191.2779, "MEAN_ANOMALY": 180.5256, "EPHEMERIS_TYPE": 0, "CLASSIFICATION_TYPE": "U", "NORAD_CAT_ID": 29781, "ELEMENT_SET_NO": 999, "REV_AT_EPOCH": 96552, "BSTAR": 0.00093344584, "MEAN_MOTION_DOT": 1.501e-05, "MEAN_MOTION_DDOT": 0}, "tle": {"line1": "1 29781U 99025BX  25340.24758991  .00001501  00000+0  93345-3 0  9994", "line2": "2 29781  98.8095 334.5889 0071610 191.2779 180.5256 14.05207868965524"}}, "geometry": {"type": "Point", "coordinates": [-30.952863727079603, 33.50255114546199]}}]}